ONEWEB-0520             
1 54138U 22138AB  24185.76963165 -.00000244  00000+0 -64295-3 0  9990
2 54138  87.9146  86.9284 0002417  70.8373 289.3021 13.19724835 83590
ONEWEB-0521             
1 54139U 22138AC  24185.42371540 -.00000277  00000+0 -72406-3 0  9993
2 54139  87.9144  86.9901 0001913  85.1930 274.9421 13.19725753 83520
ONEWEB-0522             
1 54140U 22138AD  24185.17572921  .00000018  00000+0  11985-4 0  9990
2 54140  87.9145  87.0413 0002001  74.3843 285.7510 13.19728327 83502
ONEWEB-0523             
1 54141U 22138AE  24185.55302137  .00000013  00000+0  39036-6 0  9997
2 54141  87.9202  56.4209 0001088 101.9131 258.2125 13.20770842 85972
ONEWEB-0524             
1 54142U 22138AF  24185.69347987 -.00000300  00000+0 -77059-3 0  9990
2 54142  87.9201  56.3962 0001169  43.7220 316.4006 13.20771334 85993
ONEWEB-0525             
1 54143U 22138AG  24185.42214030  .00000037  00000+0  60537-4 0  9993
2 54143  87.9147  87.0015 0002259  74.0314 286.1067 13.19724483 83556
ONEWEB-0526             
1 54144U 22138AH  24184.77295964  .00000007  00000+0 -15544-4 0  9992
2 54144  87.9145  87.1258 0002021  73.8378 286.2977 13.19727180 82578
ONEWEB-0529             
1 54145U 22138AJ  24184.77612279 -.00000008  00000+0 -51189-4 0  9992
2 54145  87.9153  87.1412 0002254  71.9906 288.1473 13.19724274 82599
